{
  "type": "FeatureCollection",
  "features": [
    {
      "type": "Feature",
      "properties": {
        "norad_id": 66801,
        "name": "STARLINK-36080",
        "group": "last-30-days",
        "lat": -16.310042258360518,
        "lon": -170.08178927578638,
        "alt_km": 374.919447710864,
        "timestamp": "2025-12-19T22:41:51.097029+00:00",
        "meta_object_name": "STARLINK-36080",
        "meta_object_id": "2025-278L",
        "meta_epoch": "2025-12-19T18:00:00.998784",
        "meta_mean_motion": 15.65721488,
        "meta_eccentricity": 0.0001605,
        "meta_inclination": 42.9991,
        "meta_ra_of_asc_node": 209.3907,
        "meta_arg_of_pericenter": 261.4922,
        "meta_mean_anomaly": 50.0268,
        "meta_ephemeris_type": 0,
        "meta_classification_type": "U",
        "meta_norad_cat_id": 66801,
        "meta_element_set_no": 999,
        "meta_rev_at_epoch": 408,
        "meta_bstar": -0.021956,
        "meta_mean_motion_dot": -0.02007889,
        "meta_mean_motion_ddot": 0,
        "tle_line1": "1 66801U 25278L   25353.75001156 -.02007889  00000+0 -21956-1 0  9997",
        "tle_line2": "2 66801  42.9991 209.3907 0001605 261.4922  50.0268 15.65721488  4085"
      },
      "geometry": {
        "type": "Point",
        "coordinates": [
          -170.08178927578638,
          -16.310042258360518
        ]
      }
    },
    {
      "type": "Feature",
      "properties": {
        "norad_id": 66802,
        "name": "STARLINK-35604",
        "group": "last-30-days",
        "lat": -23.51614103373224,
        "lon": -179.58957655347538,
        "alt_km": 375.3207564944796,
        "timestamp": "2025-12-19T22:41:51.097039+00:00",
        "meta_object_name": "STARLINK-35604",
        "meta_object_id": "2025-278M",
        "meta_epoch": "2025-12-19T18:00:00.998784",
        "meta_mean_motion": 15.65720169,
        "meta_eccentricity": 0.0001517,
        "meta_inclination": 42.9989,
        "meta_ra_of_asc_node": 209.4204,
        "meta_arg_of_pericenter": 263.0463,
        "meta_mean_anomaly": 36.9715,
        "meta_ephemeris_type": 0,
        "meta_classification_type": "U",
        "meta_norad_cat_id": 66802,
        "meta_element_set_no": 999,
        "meta_rev_at_epoch": 408,
        "meta_bstar": -0.021936,
        "meta_mean_motion_dot": -0.020061,
        "meta_mean_motion_ddot": 0,
        "tle_line1": "1 66802U 25278M   25353.75001156 -.02006100  00000+0 -21936-1 0  9991",
        "tle_line2": "2 66802  42.9989 209.4204 0001517 263.0463  36.9715 15.65720169  4089"
      },
      "geometry": {
        "type": "Point",
        "coordinates": [
          -179.58957655347538,
          -23.51614103373224
        ]
      }
    },
    {
      "type": "Feature",
      "properties": {
        "norad_id": 66803,
        "name": "STARLINK-35565",
        "group": "last-30-days",
        "lat": -21.172397807704836,
        "lon": -176.32161106182488,
        "alt_km": 375.2754234905815,
        "timestamp": "2025-12-19T22:41:51.097049+00:00",
        "meta_object_name": "STARLINK-35565",
        "meta_object_id": "2025-278N",
        "meta_epoch": "2025-12-19T18:00:00.998784",
        "meta_mean_motion": 15.65717587,
        "meta_eccentricity": 0.0001537,
        "meta_inclination": 42.9986,
        "meta_ra_of_asc_node": 209.4106,
        "meta_arg_of_pericenter": 258.8385,
        "meta_mean_anomaly": 45.0134,
        "meta_ephemeris_type": 0,
        "meta_classification_type": "U",
        "meta_norad_cat_id": 66803,
        "meta_element_set_no": 999,
        "meta_rev_at_epoch": 417,
        "meta_bstar": -0.021866,
        "meta_mean_motion_dot": -0.02000299,
        "meta_mean_motion_ddot": 0,
        "tle_line1": "1 66803U 25278N   25353.75001156 -.02000299  00000+0 -21866-1 0  9997",
        "tle_line2": "2 66803  42.9986 209.4106 0001537 258.8385  45.0134 15.65717587  4171"
      },
      "geometry": {
        "type": "Point",
        "coordinates": [
          -176.32161106182488,
          -21.172397807704836
        ]
      }
    },
    {
      "type": "Feature",
      "properties": {
        "norad_id": 66804,
        "name": "STARLINK-36038",
        "group": "last-30-days",
        "lat": -19.976910394893952,
        "lon": -174.72617859909403,
        "alt_km": 375.2518672024398,
        "timestamp": "2025-12-19T22:41:51.097061+00:00",
        "meta_object_name": "STARLINK-36038",
        "meta_object_id": "2025-278P",
        "meta_epoch": "2025-12-19T18:00:00.998784",
        "meta_mean_motion": 15.65719763,
        "meta_eccentricity": 0.0001566,
        "meta_inclination": 42.999,
        "meta_ra_of_asc_node": 209.4062,
        "meta_arg_of_pericenter": 256.4397,
        "meta_mean_anomaly": 49.3282,
        "meta_ephemeris_type": 0,
        "meta_classification_type": "U",
        "meta_norad_cat_id": 66804,
        "meta_element_set_no": 999,
        "meta_rev_at_epoch": 408,
        "meta_bstar": -0.021907,
        "meta_mean_motion_dot": -0.0200382,
        "meta_mean_motion_ddot": 0,
        "tle_line1": "1 66804U 25278P   25353.75001156 -.02003820  00000+0 -21907-1 0  9997",
        "tle_line2": "2 66804  42.9990 209.4062 0001566 256.4397  49.3282 15.65719763  4086"
      },
      "geometry": {
        "type": "Point",
        "coordinates": [
          -174.72617859909403,
          -19.976910394893952
        ]
      }
    },
    {
      "type": "Feature",
      "properties": {
        "norad_id": 66805,
        "name": "STARLINK-36049",
        "group": "last-30-days",
        "lat": -17.54364404800241,
        "lon": -171.6073146418855,
        "alt_km": 374.96337271932043,
        "timestamp": "2025-12-19T22:41:51.097072+00:00",
        "meta_object_name": "STARLINK-36049",
        "meta_object_id": "2025-278Q",
        "meta_epoch": "2025-12-19T18:00:00.998784",
        "meta_mean_motion": 15.65719246,
        "meta_eccentricity": 0.0001605,
        "meta_inclination": 42.9989,
        "meta_ra_of_asc_node": 209.3959,
        "meta_arg_of_pericenter": 263.3852,
        "meta_mean_anomaly": 46.2201,
        "meta_ephemeris_type": 0,
        "meta_classification_type": "U",
        "meta_norad_cat_id": 66805,
        "meta_element_set_no": 999,
        "meta_rev_at_epoch": 408,
        "meta_bstar": -0.021965,
        "meta_mean_motion_dot": -0.02008427,
        "meta_mean_motion_ddot": 0,
        "tle_line1": "1 66805U 25278Q   25353.75001156 -.02008427  00000+0 -21965-1 0  9990",
        "tle_line2": "2 66805  42.9989 209.3959 0001605 263.3852  46.2201 15.65719246  4089"
      },
      "geometry": {
        "type": "Point",
        "coordinates": [
          -171.6073146418855,
          -17.54364404800241
        ]
      }
    },
    {
      "type": "Feature",
      "properties": {
        "norad_id": 66806,
        "name": "STARLINK-36069",
        "group": "last-30-days",
        "lat": -18.767094748911916,
        "lon": -173.15577004691576,
        "alt_km": 375.072605741635,
        "timestamp": "2025-12-19T22:41:51.097082+00:00",
        "meta_object_name": "STARLINK-36069",
        "meta_object_id": "2025-278R",
        "meta_epoch": "2025-12-19T18:00:00.998784",
        "meta_mean_motion": 15.65719851,
        "meta_eccentricity": 0.0001561,
        "meta_inclination": 42.999,
        "meta_ra_of_asc_node": 209.4011,
        "meta_arg_of_pericenter": 262.0006,
        "meta_mean_anomaly": 45.686,
        "meta_ephemeris_type": 0,
        "meta_classification_type": "U",
        "meta_norad_cat_id": 66806,
        "meta_element_set_no": 999,
        "meta_rev_at_epoch": 387,
        "meta_bstar": -0.021945,
        "meta_mean_motion_dot": -0.02006861,
        "meta_mean_motion_ddot": 0,
        "tle_line1": "1 66806U 25278R   25353.75001156 -.02006861  00000+0 -21945-1 0  9999",
        "tle_line2": "2 66806  42.9990 209.4011 0001561 262.0006  45.6860 15.65719851  3872"
      },
      "geometry": {
        "type": "Point",
        "coordinates": [
          -173.15577004691576,
          -18.767094748911916
        ]
      }
    },
    {
      "type": "Feature",
      "properties": {
        "norad_id": 66807,
        "name": "STARLINK-36000",
        "group": "last-30-days",
        "lat": -15.064882878067845,
        "lon": -168.57356793373904,
        "alt_km": 374.93445826498555,
        "timestamp": "2025-12-19T22:41:51.097091+00:00",
        "meta_object_name": "STARLINK-36000",
        "meta_object_id": "2025-278S",
        "meta_epoch": "2025-12-19T18:00:00.998784",
        "meta_mean_motion": 15.65718994,
        "meta_eccentricity": 0.0001564,
        "meta_inclination": 42.9989,
        "meta_ra_of_asc_node": 209.3869,
        "meta_arg_of_pericenter": 257.3086,
        "meta_mean_anomaly": 56.1276,
        "meta_ephemeris_type": 0,
        "meta_classification_type": "U",
        "meta_norad_cat_id": 66807,
        "meta_element_set_no": 999,
        "meta_rev_at_epoch": 414,
        "meta_bstar": -0.021884,
        "meta_mean_motion_dot": -0.02001879,
        "meta_mean_motion_ddot": 0,
        "tle_line1": "1 66807U 25278S   25353.75001156 -.02001879  00000+0 -21884-1 0  9996",
        "tle_line2": "2 66807  42.9989 209.3869 0001564 257.3086  56.1276 15.65718994  4145"
      },
      "geometry": {
        "type": "Point",
        "coordinates": [
          -168.57356793373904,
          -15.064882878067845
        ]
      }
    }
  ]
}